{
  "type": "FeatureCollection",
  "features": [
    {
      "type": "Feature",
      "properties": {
        "norad_id": 33805,
        "name": "COSMOS 2251 DEB",
        "group": "cosmos-2251-debris",
        "lat": 17.314223505111585,
        "lon": -36.39879463178318,
        "alt_km": 727.8333990641586,
        "timestamp": "2025-12-08T23:34:04.364225+00:00",
        "meta_object_name": "COSMOS 2251 DEB",
        "meta_object_id": "1993-036AW",
        "meta_epoch": "2025-12-08T08:39:43.579584",
        "meta_mean_motion": 14.57841007,
        "meta_eccentricity": 0.00603531,
        "meta_inclination": 74.0317,
        "meta_ra_of_asc_node": 319.661,
        "meta_arg_of_pericenter": 149.8952,
        "meta_mean_anomaly": 210.5705,
        "meta_ephemeris_type": 0,
        "meta_classification_type": "U",
        "meta_norad_cat_id": 33805,
        "meta_element_set_no": 999,
        "meta_rev_at_epoch": 89163,
        "meta_bstar": 0.00044804536,
        "meta_mean_motion_dot": 2.074e-05,
        "meta_mean_motion_ddot": 0,
        "tle_line1": "1 33805U 93036AW  25342.36092106  .00002074  00000+0  44805-3 0  9999",
        "tle_line2": "2 33805  74.0317 319.6610 0060353 149.8952 210.5705 14.57841007891638"
      },
      "geometry": {
        "type": "Point",
        "coordinates": [
          -36.39879463178318,
          17.314223505111585
        ]
      }
    },
    {
      "type": "Feature",
      "properties": {
        "norad_id": 33811,
        "name": "COSMOS 2251 DEB",
        "group": "cosmos-2251-debris",
        "lat": -31.84063967866009,
        "lon": -59.926727839508715,
        "alt_km": 547.9456349641905,
        "timestamp": "2025-12-08T23:34:04.364235+00:00",
        "meta_object_name": "COSMOS 2251 DEB",
        "meta_object_id": "1993-036BC",
        "meta_epoch": "2025-12-08T14:40:54.177024",
        "meta_mean_motion": 15.05062931,
        "meta_eccentricity": 0.00307176,
        "meta_inclination": 73.8382,
        "meta_ra_of_asc_node": 311.2158,
        "meta_arg_of_pericenter": 32.6099,
        "meta_mean_anomaly": 89.1941,
        "meta_ephemeris_type": 0,
        "meta_classification_type": "U",
        "meta_norad_cat_id": 33811,
        "meta_element_set_no": 999,
        "meta_rev_at_epoch": 89956,
        "meta_bstar": 0.0016991803,
        "meta_mean_motion_dot": 0.00024455,
        "meta_mean_motion_ddot": 0,
        "tle_line1": "1 33811U 93036BC  25342.61173816  .00024455  00000+0  16992-2 0  9994",
        "tle_line2": "2 33811  73.8382 311.2158 0030717  32.6099  89.1941 15.05062931899568"
      },
      "geometry": {
        "type": "Point",
        "coordinates": [
          -59.926727839508715,
          -31.84063967866009
        ]
      }
    },
    {
      "type": "Feature",
      "properties": {
        "norad_id": 33815,
        "name": "COSMOS 2251 DEB",
        "group": "cosmos-2251-debris",
        "lat": -48.643916965059795,
        "lon": 23.553999298196544,
        "alt_km": 520.3501137506773,
        "timestamp": "2025-12-08T23:34:04.364246+00:00",
        "meta_object_name": "COSMOS 2251 DEB",
        "meta_object_id": "1993-036BG",
        "meta_epoch": "2025-12-08T14:54:08.664768",
        "meta_mean_motion": 15.16556721,
        "meta_eccentricity": 0.00030931,
        "meta_inclination": 73.953,
        "meta_ra_of_asc_node": 185.2243,
        "meta_arg_of_pericenter": 233.3774,
        "meta_mean_anomaly": 187.4365,
        "meta_ephemeris_type": 0,
        "meta_classification_type": "U",
        "meta_norad_cat_id": 33815,
        "meta_element_set_no": 999,
        "meta_rev_at_epoch": 88308,
        "meta_bstar": 0.0068313827,
        "meta_mean_motion_dot": 0.00135864,
        "meta_mean_motion_ddot": 0,
        "tle_line1": "1 33815U 93036BG  25342.62093362  .00135864  00000+0  68314-2 0  9998",
        "tle_line2": "2 33815  73.9530 185.2243 0003093 233.3774 187.4365 15.16556721883088"
      },
      "geometry": {
        "type": "Point",
        "coordinates": [
          23.553999298196544,
          -48.643916965059795
        ]
      }
    },
    {
      "type": "Feature",
      "properties": {
        "norad_id": 33816,
        "name": "COSMOS 2251 DEB",
        "group": "cosmos-2251-debris",
        "lat": 52.329377829287345,
        "lon": -90.21081968003043,
        "alt_km": 757.9627731497785,
        "timestamp": "2025-12-08T23:34:04.364256+00:00",
        "meta_object_name": "COSMOS 2251 DEB",
        "meta_object_id": "1993-036BH",
        "meta_epoch": "2025-12-08T12:33:14.760000",
        "meta_mean_motion": 13.81775062,
        "meta_eccentricity": 0.02649542,
        "meta_inclination": 73.8945,
        "meta_ra_of_asc_node": 112.5423,
        "meta_arg_of_pericenter": 126.2947,
        "meta_mean_anomaly": 236.2965,
        "meta_ephemeris_type": 0,
        "meta_classification_type": "U",
        "meta_norad_cat_id": 33816,
        "meta_element_set_no": 999,
        "meta_rev_at_epoch": 84615,
        "meta_bstar": 0.00095747383,
        "meta_mean_motion_dot": 1.317e-05,
        "meta_mean_motion_ddot": 0,
        "tle_line1": "1 33816U 93036BH  25342.52308750  .00001317  00000+0  95747-3 0  9994",
        "tle_line2": "2 33816  73.8945 112.5423 0264954 126.2947 236.2965 13.81775062846155"
      },
      "geometry": {
        "type": "Point",
        "coordinates": [
          -90.21081968003043,
          52.329377829287345
        ]
      }
    },
    {
      "type": "Feature",
      "properties": {
        "norad_id": 33818,
        "name": "COSMOS 2251 DEB",
        "group": "cosmos-2251-debris",
        "lat": -7.628053271777394,
        "lon": -3.8027887530930493,
        "alt_km": 515.88461857315,
        "timestamp": "2025-12-08T23:34:04.364267+00:00",
        "meta_object_name": "COSMOS 2251 DEB",
        "meta_object_id": "1993-036BK",
        "meta_epoch": "2025-12-08T15:04:24.092832",
        "meta_mean_motion": 15.12003954,
        "meta_eccentricity": 0.00280454,
        "meta_inclination": 74.0753,
        "meta_ra_of_asc_node": 174.7365,
        "meta_arg_of_pericenter": 164.9553,
        "meta_mean_anomaly": 256.9801,
        "meta_ephemeris_type": 0,
        "meta_classification_type": "U",
        "meta_norad_cat_id": 33818,
        "meta_element_set_no": 999,
        "meta_rev_at_epoch": 89800,
        "meta_bstar": 0.0026769312,
        "meta_mean_motion_dot": 0.00046674,
        "meta_mean_motion_ddot": 0,
        "tle_line1": "1 33818U 93036BK  25342.62805663  .00046674  00000+0  26769-2 0  9994",
        "tle_line2": "2 33818  74.0753 174.7365 0028045 164.9553 256.9801 15.12003954898002"
      },
      "geometry": {
        "type": "Point",
        "coordinates": [
          -3.8027887530930493,
          -7.628053271777394
        ]
      }
    },
    {
      "type": "Feature",
      "properties": {
        "norad_id": 33819,
        "name": "COSMOS 2251 DEB",
        "group": "cosmos-2251-debris",
        "lat": -44.93991234975804,
        "lon": -159.79385282495787,
        "alt_km": 828.0714965453553,
        "timestamp": "2025-12-08T23:34:04.364277+00:00",
        "meta_object_name": "COSMOS 2251 DEB",
        "meta_object_id": "1993-036BL",
        "meta_epoch": "2025-12-08T15:30:26.070048",
        "meta_mean_motion": 14.32202434,
        "meta_eccentricity": 0.00889296,
        "meta_inclination": 74.1791,
        "meta_ra_of_asc_node": 217.25,
        "meta_arg_of_pericenter": 79.8288,
        "meta_mean_anomaly": 302.8694,
        "meta_ephemeris_type": 0,
        "meta_classification_type": "U",
        "meta_norad_cat_id": 33819,
        "meta_element_set_no": 999,
        "meta_rev_at_epoch": 87437,
        "meta_bstar": 0.0010926536,
        "meta_mean_motion_dot": 3.052e-05,
        "meta_mean_motion_ddot": 0,
        "tle_line1": "1 33819U 93036BL  25342.64613507  .00003052  00000+0  10927-2 0  9993",
        "tle_line2": "2 33819  74.1791 217.2500 0088929  79.8288 302.8694 14.32202434874376"
      },
      "geometry": {
        "type": "Point",
        "coordinates": [
          -159.79385282495787,
          -44.93991234975804
        ]
      }
    },
    {
      "type": "Feature",
      "properties": {
        "norad_id": 33821,
        "name": "COSMOS 2251 DEB",
        "group": "cosmos-2251-debris",
        "lat": 4.419301012549919,
        "lon": -30.488867095466496,
        "alt_km": 457.2141165929488,
        "timestamp": "2025-12-08T23:34:04.364288+00:00",
        "meta_object_name": "COSMOS 2251 DEB",
        "meta_object_id": "1993-036BN",
        "meta_epoch": "2025-12-08T13:21:14.099616",
        "meta_mean_motion": 15.24922885,
        "meta_eccentricity": 0.0052953,
        "meta_inclination": 74.0296,
        "meta_ra_of_asc_node": 151.6782,
        "meta_arg_of_pericenter": 186.2175,
        "meta_mean_anomaly": 173.8375,
        "meta_ephemeris_type": 0,
        "meta_classification_type": "U",
        "meta_norad_cat_id": 33821,
        "meta_element_set_no": 999,
        "meta_rev_at_epoch": 74937,
        "meta_bstar": 0.0014656683,
        "meta_mean_motion_dot": 0.00038141,
        "meta_mean_motion_ddot": 0,
        "tle_line1": "1 33821U 93036BN  25342.55641319  .00038141  00000+0  14657-2 0  9999",
        "tle_line2": "2 33821  74.0296 151.6782 0052953 186.2175 173.8375 15.24922885749371"
      },
      "geometry": {
        "type": "Point",
        "coordinates": [
          -30.488867095466496,
          4.419301012549919
        ]
      }
    }
  ]
}